STARLINK-32714          
1 62499U 25003N   26068.01081700  .00038942  00000+0  14164-2 0  9992
2 62499  43.0027 293.1613 0001915 264.3920  95.6713 15.27599264 66569
2025-313BC              
1 67298U 25313BC  26068.18968176  .00075331  00000+0  26410-2 0  9997
2 67298  97.3985 144.8110 0008478 328.9209  31.1528 15.29126358  7890
