[{"OBJECT_NAME":"STARLINK-32714","OBJECT_ID":"2025-003N","EPOCH":"2026-03-09T00:15:34.588800","MEAN_MOTION":15.27599264,"ECCENTRICITY":0.00019152,"INCLINATION":43.0027,"RA_OF_ASC_NODE":293.1613,"ARG_OF_PERICENTER":264.392,"MEAN_ANOMALY":95.6713,"EPHEMERIS_TYPE":0,"CLASSIFICATION_TYPE":"U","NORAD_CAT_ID":62499,"ELEMENT_SET_NO":999,"REV_AT_EPOCH":6656,"BSTAR":0.0014163541,"MEAN_MOTION_DOT":0.00038942,"MEAN_MOTION_DDOT":0},{"OBJECT_NAME":"OBJECT BC","OBJECT_ID":"2025-313BC","EPOCH":"2026-03-09T04:33:08.504064","MEAN_MOTION":15.29126358,"ECCENTRICITY":0.00084789,"INCLINATION":97.3985,"RA_OF_ASC_NODE":144.811,"ARG_OF_PERICENTER":328.9209,"MEAN_ANOMALY":31.1528,"EPHEMERIS_TYPE":0,"CLASSIFICATION_TYPE":"U","NORAD_CAT_ID":67298,"ELEMENT_SET_NO":999,"REV_AT_EPOCH":789,"BSTAR":0.0026410397,"MEAN_MOTION_DOT":0.00075331,"MEAN_MOTION_DDOT":0}]
